PHISAT 2                
1 60470U 24149C   26068.78834181  .00008925  00000+0  31421-3 0  9996
2 60470  97.3806 148.6498 0001175 168.6230 191.5037 15.29548631 86792
STARLINK-34229          
1 64250U 25119T   26067.69313362  .00038133  00000+0  13871-2 0  9998
2 64250  42.9995 312.9644 0001327 274.4295  85.6405 15.27603613 44013
